{
  "norad_id": 64807,
  "name": "STARLINK-34663",
  "history": [
    {
      "epoch": "2026-03-28T16:49:39.638208",
      "apogee_km": 574.4279901925111,
      "perigee_km": 569.6497442837845,
      "latitude_deg": 13.482893540906005,
      "longitude_deg": 8.010709119960666,
      "semi_major_axis_km": 6950.1758672381475,
      "eccentricity": 0.00034375,
      "inclination_deg": 70.002,
      "raan_deg": 86.5613,
      "arg_perigee_deg": 270.698,
      "mean_anomaly_deg": 89.3786,
      "mean_motion_rev_day": 14.98335505
    },
    {
      "epoch": "2026-03-29T04:02:35.852064",
      "apogee_km": 574.6090907946555,
      "perigee_km": 569.4340027407316,
      "latitude_deg": -58.90673438481729,
      "longitude_deg": 52.873168959748,
      "semi_major_axis_km": 6950.158546767693,
      "eccentricity": 0.0003723,
      "inclination_deg": 70.0012,
      "raan_deg": 85.383,
      "arg_perigee_deg": 270.3567,
      "mean_anomaly_deg": 89.7165,
      "mean_motion_rev_day": 14.98341106
    }
  ]
}